LEMUR-2-ANDIS           
1 42838U 17042P   26068.55941107  .00023598  00000+0  79875-3 0  9998
2 42838  97.3659 249.7950 0009101   4.3248 355.8070 15.30557934473198
STARLINK-32658          
1 62999U 25031U   26068.53782840  .00032355  00000+0  11798-2 0  9990
2 62999  43.0011 144.0508 0001566 269.4702  90.5970 15.27589784 61076
